COSMOS 2251 DEB         
1 34563U 93036UZ  17345.70217047  .00000283  00000-0  10037-3 0  9997
2 34563  74.0394 210.8758 0015739 301.2339 121.2477 14.38954285460976
